NORAD_CAT_ID,OBJECT_NAME,OBJECT_TYPE,EPOCH,MEAN_MOTION,ECCENTRICITY,INCLINATION,RA_OF_ASC_NODE,ARG_OF_PERICENTER,MEAN_ANOMALY,BSTAR,MEAN_MOTION_DOT,MEAN_MOTION_DDOT,TLE_LINE0,TLE_LINE1,TLE_LINE2,SEMIMAJOR_AXIS,PERIOD,APOGEE,PERIGEE,DECAYED
52474.0,STARLINK-3855,PAYLOAD,2023-02-09 18:19:06,15.08840453,0.0001384,53.2187,54.6239,79.455,280.6598,8.441e-05,1.056e-05,0.0,0 STARLINK-3855,1 52474U 22049Z   23040.76327205  .00001056  00000-0  84410-4 0  9993,2 52474  53.2187  54.6239 0001384  79.4550 280.6598 15.08840453 42715,6917.879,95.438,540.701,538.787,0.0
52474.0,STARLINK-3855,PAYLOAD,2023-02-10 07:02:11,15.08842715,0.0001004,53.2167,52.2478,83.9887,276.1219,0.00016062,2.27e-05,0.0,0 STARLINK-3855,1 52474U 22049Z   23041.29319419  .00002270  00000-0  16062-3 0  9996,2 52474  53.2167  52.2478 0001004  83.9887 276.1219 15.08842715 42795,6917.872,95.437,540.432,539.043,0.0
52474.0,STARLINK-3855,PAYLOAD,2023-02-11 06:52:58,15.08849062,0.0001096,53.2174,47.7841,101.5267,258.5848,0.00022013,3.218e-05,0.0,0 STARLINK-3855,1 52474U 22049Z   23042.28679083  .00003218  00000-0  22013-3 0  9998,2 52474  53.2174  47.7841 0001096 101.5267 258.5848 15.08849062 43106,6917.853,95.437,540.476,538.959,0.0
52474.0,STARLINK-3855,PAYLOAD,2023-02-11 08:28:21,15.08852638,0.0001102,53.2178,47.4867,104.4165,255.6949,0.00029822,4.463e-05,0.0,0 STARLINK-3855,1 52474U 22049Z   23042.35302825  .00004463  00000-0  29822-3 0  9991,2 52474  53.2178  47.4867 0001102 104.4165 255.6949 15.08852638 42957,6917.842,95.437,540.469,538.944,0.0
52474.0,STARLINK-3855,PAYLOAD,2023-02-12 08:19:09,15.08841612,0.0001201,53.2181,43.0292,101.5879,258.5248,8.5328e-05,1.07e-05,0.0,0 STARLINK-3855,1 52474U 22049Z   23043.34663521  .00001070  00000-0  85328-4 0  9999,2 52474  53.2181  43.0292 0001201 101.5879 258.5248 15.08841612 43264,6917.875,95.437,540.571,538.91,0.0
52474.0,STARLINK-3855,PAYLOAD,2023-02-12 09:54:32,15.08842316,0.0001194,53.2178,42.7311,101.1246,258.988,8.4858e-05,1.063e-05,0.0,0 STARLINK-3855,1 52474U 22049Z   23043.41287464  .00001063  00000-0  84858-4 0  9994,2 52474  53.2178  42.7311 0001194 101.1246 258.9880 15.08842316 43115,6917.873,95.437,540.564,538.912,0.0
52474.0,STARLINK-3855,PAYLOAD,2023-02-13 09:45:18,15.08867389,0.0001381,53.2181,38.2694,100.4237,259.6911,0.00055126,8.503e-05,0.0,0 STARLINK-3855,1 52474U 22049Z   23044.40646243  .00008503  00000-0  55126-3 0  9999,2 52474  53.2181  38.2694 0001381 100.4237 259.6911 15.08867389 43427,6917.797,95.436,540.617,538.706,0.0
52474.0,STARLINK-3855,PAYLOAD,2023-02-13 16:06:51,15.08840063,0.0001928,53.219,37.0791,95.8745,264.2467,1.8691e-05,9e-08,0.0,0 STARLINK-3855,1 52474U 22049Z   23044.67143255  .00000009  00000-0  18691-4 0  9993,2 52474  53.2190  37.0791 0001928  95.8745 264.2467 15.08840063 43462,6917.88,95.438,541.079,538.411,0.0
52474.0,STARLINK-3855,PAYLOAD,2023-02-14 01:39:11,15.08827587,0.0001354,53.2188,35.2965,107.491,252.623,-0.00010887,-2.02e-05,0.0,0 STARLINK-3855,1 52474U 22049Z   23045.06887903 -.00002020  00000-0 -10887-3 0  9997,2 52474  53.2188  35.2965 0001354 107.4910 252.6230 15.08827587 43521,6917.918,95.438,540.72,538.847,0.0
52474.0,STARLINK-3855,PAYLOAD,2023-02-14 08:00:43,15.0884358,0.000121,53.2174,34.1065,104.5477,255.565,0.00025703,3.806e-05,0.0,0 STARLINK-3855,1 52474U 22049Z   23045.33383440  .00003806  00000-0  25703-3 0  9998,2 52474  53.2174  34.1065 0001210 104.5477 255.5650 15.08843580 43565,6917.869,95.437,540.572,538.897,0.0
52474.0,STARLINK-3855,PAYLOAD,2023-02-14 15:57:39,15.08839234,0.0001174,53.2177,32.62,107.2036,252.9085,0.00081496,0.00012706,0.0,0 STARLINK-3855,1 52474U 22049Z   23045.66503828  .00012706  00000-0  81496-3 0  9998,2 52474  53.2177  32.6200 0001174 107.2036 252.9085 15.08839234 43454,6917.883,95.438,540.56,538.936,0.0
52474.0,STARLINK-3855,PAYLOAD,2023-02-15 06:16:07,15.08841462,0.000132,53.2176,29.9447,88.7718,271.3425,0.0005948,9.191e-05,0.0,0 STARLINK-3855,1 52474U 22049Z   23046.26120250  .00009191  00000-0  59480-3 0  9991,2 52474  53.2176  29.9447 0001320  88.7718 271.3425 15.08841462 43705,6917.876,95.437,540.654,538.828,0.0
52474.0,STARLINK-3855,PAYLOAD,2023-02-15 22:09:58,15.08854849,0.0001394,53.2185,26.9716,74.0718,286.0428,0.00046669,7.15e-05,0.0,0 STARLINK-3855,1 52474U 22049Z   23046.92359838  .00007150  00000-0  46669-3 0  9998,2 52474  53.2185  26.9716 0001394  74.0718 286.0428 15.08854849 43642,6917.835,95.437,540.664,538.736,0.0
52474.0,STARLINK-3855,PAYLOAD,2023-02-16 09:17:39,15.08879611,9.71e-05,53.2169,24.8872,89.6077,270.5026,0.0010524,0.00016519,0.0,0 STARLINK-3855,1 52474U 22049Z   23047.38726498  .00016519  00000-0  10524-2 0  9998,2 52474  53.2169  24.8872 0000971  89.6077 270.5026 15.08879611 43718,6917.759,95.435,540.296,538.953,0.0
52474.0,STARLINK-3855,PAYLOAD,2023-02-16 15:39:12,15.08859269,0.0001095,53.2181,23.6967,83.7531,276.3586,0.00032642,4.914e-05,0.0,0 STARLINK-3855,1 52474U 22049Z   23047.65222787  .00004914  00000-0  32642-3 0  9992,2 52474  53.2181  23.6967 0001095  83.7531 276.3586 15.08859269 43916,6917.821,95.436,540.444,538.929,0.0
52474.0,STARLINK-3855,PAYLOAD,2023-02-16 23:36:08,15.08840732,0.0001596,53.2182,22.2128,85.3552,274.7622,-0.00021032,-3.634e-05,0.0,0 STARLINK-3855,1 52474U 22049Z   23047.98343211 -.00003634  00000-0 -21032-3 0  9995,2 52474  53.2182  22.2128 0001596  85.3552 274.7622 15.08840732 43961,6917.878,95.438,540.847,538.639,0.0
52474.0,STARLINK-3855,PAYLOAD,2023-02-17 07:33:04,15.08847269,0.0001823,53.2186,20.7236,83.5366,276.5833,0.00011852,1.599e-05,0.0,0 STARLINK-3855,1 52474U 22049Z   23048.31463190  .00001599  00000-0  11852-3 0  9997,2 52474  53.2186  20.7236 0001823  83.5366 276.5833 15.08847269 43858,6917.858,95.437,540.984,538.462,0.0
52474.0,STARLINK-3855,PAYLOAD,2023-02-17 17:05:23,15.08832359,0.0001689,53.2158,18.9415,92.7192,267.3993,-4.8463e-05,-1.059e-05,0.0,0 STARLINK-3855,1 52474U 22049Z   23048.71207775 -.00001059  00000-0 -48463-4 0  9998,2 52474  53.2158  18.9415 0001689  92.7192 267.3993 15.08832359 43910,6917.904,95.438,540.937,538.6,0.0
52474.0,STARLINK-3855,PAYLOAD,2023-02-18 04:13:06,15.08811827,0.0001541,53.2164,16.8593,99.1232,260.9935,-0.00018706,-3.261e-05,0.0,0 STARLINK-3855,1 52474U 22049Z   23049.17577092 -.00003261  00000-0 -18706-3 0  9994,2 52474  53.2164  16.8593 0001541  99.1232 260.9935 15.08811827 44142,6917.967,95.439,540.898,538.765,0.0
52474.0,STARLINK-3855,PAYLOAD,2023-02-18 07:23:53,15.08814003,0.0001655,53.2161,16.2623,104.8459,255.2716,3.922e-05,3.36e-06,0.0,0 STARLINK-3855,1 52474U 22049Z   23049.30825340  .00000336  00000-0  39220-4 0  9994,2 52474  53.2161  16.2623 0001655 104.8459 255.2716 15.08814003 44006,6917.96,95.439,540.97,538.68,0.0
52474.0,STARLINK-3855,PAYLOAD,2023-02-18 15:20:49,15.08827296,0.000163,53.2168,14.7773,103.2728,256.8446,0.0010261,0.00016074,0.0,0 STARLINK-3855,1 52474U 22049Z   23049.63945698  .00016074  00000-0  10261-2 0  9997,2 52474  53.2168  14.7773 0001630 103.2728 256.8446 15.08827296 44215,6917.919,95.438,540.912,538.657,0.0
52474.0,STARLINK-3855,PAYLOAD,2023-02-18 23:17:44,15.08850228,0.0001633,53.2167,13.2896,106.3138,253.8033,0.0015931,0.00025164,0.0,0 STARLINK-3855,1 52474U 22049Z   23049.97065598  .00025164  00000-0  15931-2 0  9995,2 52474  53.2167  13.2896 0001633 106.3138 253.8033 15.08850228 44261,6917.849,95.437,540.844,538.584,0.0
52474.0,STARLINK-3855,PAYLOAD,2023-02-19 07:14:39,15.08873381,0.0001683,53.2171,11.8037,106.5188,253.5989,0.0016848,0.00026652,0.0,0 STARLINK-3855,1 52474U 22049Z   23050.30185001  .00026652  00000-0  16848-2 0  9997,2 52474  53.2171  11.8037 0001683 106.5188 253.5989 15.08873381 44159,6917.778,95.435,540.808,538.479,0.0
52474.0,STARLINK-3855,PAYLOAD,2023-02-19 23:08:30,15.08867838,0.000176,53.2176,8.8297,117.6433,242.4738,0.0014442,0.00022789,0.0,0 STARLINK-3855,1 52474U 22049Z   23050.96424464  .00022789  00000-0  14442-2 0  9993,2 52474  53.2176   8.8297 0001760 117.6433 242.4738 15.08867838 44418,6917.795,95.436,540.878,538.443,0.0
52474.0,STARLINK-3855,PAYLOAD,2023-02-20 13:26:58,15.08858747,0.0001777,53.2186,6.153,101.0131,259.1062,0.00053397,8.225e-05,0.0,0 STARLINK-3855,1 52474U 22049Z   23051.56040074  .00008225  00000-0  53397-3 0  9993,2 52474  53.2186   6.1530 0001777 101.0131 259.1062 15.08858747 44504,6917.823,95.436,540.917,538.459,0.0
52474.0,STARLINK-3855,PAYLOAD,2023-02-21 00:34:40,15.08840236,0.0001744,53.2189,4.0761,106.4816,253.6368,-2.7537e-05,-7.26e-06,0.0,0 STARLINK-3855,1 52474U 22049Z   23052.02408438 -.00000726  00000-0 -27537-4 0  9995,2 52474  53.2189   4.0761 0001744 106.4816 253.6368 15.08840236 44572,6917.88,95.438,540.951,538.538,0.0
52474.0,STARLINK-3855,PAYLOAD,2023-02-21 13:17:46,15.08843602,0.0001465,53.2183,1.6942,92.7101,267.4059,0.00068042,0.00010559,0.0,0 STARLINK-3855,1 52474U 22049Z   23052.55400651  .00010559  00000-0  68042-3 0  9990,2 52474  53.2183   1.6942 0001465  92.7101 267.4059 15.08843602 44495,6917.869,95.437,540.748,538.721,0.0
52474.0,STARLINK-3855,PAYLOAD,2023-02-22 03:36:14,15.08859024,0.0001525,53.2182,359.0211,109.6231,250.4926,0.00089833,0.00014045,0.0,0 STARLINK-3855,1 52474U 22049Z   23053.15016236  .00014045  00000-0  89833-3 0  9994,2 52474  53.2182 359.0211 0001525 109.6231 250.4926 15.08859024 44740,6917.822,95.436,540.742,538.632,0.0
52474.0,STARLINK-3855,PAYLOAD,2023-02-22 06:47:00,15.08866654,0.0001407,53.2178,358.4238,95.7443,264.371,0.00099954,0.00015667,0.0,0 STARLINK-3855,1 52474U 22049Z   23053.28263925  .00015667  00000-0  99954-3 0  9993,2 52474  53.2178 358.4238 0001407  95.7443 264.3710 15.08866654 44603,6917.799,95.436,540.637,538.691,0.0
52474.0,STARLINK-3855,PAYLOAD,2023-02-22 21:05:28,15.08843583,0.0001494,53.2175,355.7435,101.1001,259.0159,0.00036086,5.46e-05,0.0,0 STARLINK-3855,1 52474U 22049Z   23053.87880630  .00005460  00000-0  36086-3 0  9993,2 52474  53.2175 355.7435 0001494 101.1001 259.0159 15.08843583 44690,6917.869,95.437,540.768,538.701,0.0
